NORAD_CAT_ID,OBJECT_NAME,OBJECT_TYPE,EPOCH,MEAN_MOTION,ECCENTRICITY,INCLINATION,RA_OF_ASC_NODE,ARG_OF_PERICENTER,MEAN_ANOMALY,BSTAR,MEAN_MOTION_DOT,MEAN_MOTION_DDOT,TLE_LINE0,TLE_LINE1,TLE_LINE2,SEMIMAJOR_AXIS,PERIOD,APOGEE,PERIGEE,DECAYED
55787.0,STARLINK-5811,PAYLOAD,2023-07-17 12:44:31,15.69920043,0.0002908,69.9988,133.4604,272.5482,87.5381,9.9579e-06,9.85e-06,0.0,0 STARLINK-5811,1 55787U 23028AY  23198.53091942  .00000985  00000-0  99579-5 0  9999,2 55787  69.9988 133.4604 0002908 272.5482  87.5381 15.69920043 21973,6737.263,91.724,361.087,357.169,0.0
55787.0,STARLINK-5811,PAYLOAD,2023-07-17 21:55:02,15.69912605,0.0003716,69.998,132.386,268.793,91.284,-1.2354e-05,-1.698e-05,0.0,0 STARLINK-5811,1 55787U 23028AY  23198.91322779 -.00001698  00000-0 -12354-4 0  9995,2 55787  69.9980 132.3860 0003716 268.7930  91.2840 15.69912605 22035,6737.284,91.725,361.653,356.645,0.0
55787.0,STARLINK-5811,PAYLOAD,2023-07-18 05:33:47,15.69928904,0.0003416,69.9992,131.4912,265.22,94.8605,8.612e-06,8.23e-06,0.0,0 STARLINK-5811,1 55787U 23028AY  23199.23179803  .00000823  00000-0  86120-5 0  9999,2 55787  69.9992 131.4912 0003416 265.2200  94.8605 15.69928904 22087,6737.237,91.724,361.404,356.801,0.0
55787.0,STARLINK-5811,PAYLOAD,2023-07-19 06:01:50,15.69920474,0.0003099,69.9989,128.6238,270.6392,89.4449,-2.8818e-07,-2.47e-06,0.0,0 STARLINK-5811,1 55787U 23028AY  23200.25127461 -.00000247  00000-0 -28818-6 0  9990,2 55787  69.9989 128.6238 0003099 270.6392  89.4449 15.69920474 22249,6737.262,91.724,361.214,357.039,0.0
55787.0,STARLINK-5811,PAYLOAD,2023-07-20 20:15:38,15.69914126,0.0003588,69.9978,124.1468,261.0766,99.0023,-4.3049e-06,-7.3e-06,0.0,0 STARLINK-5811,1 55787U 23028AY  23201.84419945 -.00000730  00000-0 -43049-5 0  9996,2 55787  69.9978 124.1468 0003588 261.0766  99.0023 15.69914126 22494,6737.28,91.725,361.562,356.727,0.0
55787.0,STARLINK-5811,PAYLOAD,2023-07-21 05:26:08,15.69926421,0.0003284,69.9987,123.0722,261.8266,98.2558,6.7826e-06,6.03e-06,0.0,0 STARLINK-5811,1 55787U 23028AY  23202.22648784  .00000603  00000-0  67826-5 0  9990,2 55787  69.9987 123.0722 0003284 261.8266  98.2558 15.69926421 22553,6737.245,91.724,361.322,356.897,0.0
55787.0,STARLINK-5811,PAYLOAD,2023-07-23 04:50:27,15.69926664,0.0003293,69.9982,117.5164,268.9508,91.131,3.7579e-06,2.39e-06,0.0,0 STARLINK-5811,1 55787U 23028AY  23204.20170674  .00000239  00000-0  37579-5 0  9995,2 55787  69.9982 117.5164 0003293 268.9508  91.1310 15.69926664 22875,6737.244,91.724,361.327,356.89,0.0
55787.0,STARLINK-5811,PAYLOAD,2023-07-24 17:32:30,15.699312,0.0003593,69.9988,113.2221,266.1492,93.9293,-4.2292e-06,-7.22e-06,0.0,0 STARLINK-5811,1 55787U 23028AY  23205.73090896 -.00000722  00000-0 -42292-5 0  9998,2 55787  69.9988 113.2221 0003593 266.1492  93.9293 15.69931200 23113,6737.231,91.724,361.517,356.675,0.0
55787.0,STARLINK-5811,PAYLOAD,2023-07-26 03:11:03,15.69925014,0.0003776,69.9979,109.2803,256.6114,103.466,1.8922e-05,2.063e-05,0.0,0 STARLINK-5811,1 55787U 23028AY  23207.13267373  .00002063  00000-0  18922-4 0  9990,2 55787  69.9979 109.2803 0003776 256.6114 103.4660 15.69925014 23337,6737.249,91.724,361.658,356.57,0.0
55787.0,STARLINK-5811,PAYLOAD,2023-07-26 16:56:49,15.69922824,0.0003818,69.998,107.6674,259.4057,100.6708,2.7903e-05,3.143e-05,0.0,0 STARLINK-5811,1 55787U 23028AY  23207.70612298  .00003143  00000-0  27903-4 0  9992,2 55787  69.9980 107.6674 0003818 259.4057 100.6708 15.69922824 23429,6737.255,91.724,361.692,356.548,0.0
55787.0,STARLINK-5811,PAYLOAD,2023-07-28 02:35:22,15.69921305,0.0003576,69.9971,103.7236,261.6763,98.4027,3.1737e-06,1.69e-06,0.0,0 STARLINK-5811,1 55787U 23028AY  23209.10789754  .00000169  00000-0  31737-5 0  9996,2 55787  69.9971 103.7236 0003576 261.6763  98.4027 15.69921305 23634,6737.259,91.724,361.533,356.715,0.0
55787.0,STARLINK-5811,PAYLOAD,2023-07-29 01:31:38,15.69928368,0.0003553,69.9972,101.0364,264.25,95.829,1.2358e-05,1.274e-05,0.0,0 STARLINK-5811,1 55787U 23028AY  23210.06364125  .00001274  00000-0  12358-4 0  9999,2 55787  69.9972 101.0364 0003553 264.2500  95.8290 15.69928368 23786,6737.239,91.724,361.498,356.71,0.0
55787.0,STARLINK-5811,PAYLOAD,2023-07-29 18:20:55,15.69919759,0.000345,69.997,99.0659,262.7485,97.3319,5.0385e-06,3.93e-06,0.0,0 STARLINK-5811,1 55787U 23028AY  23210.76453338  .00000393  00000-0  50385-5 0  9995,2 55787  69.9970  99.0659 0003450 262.7485  97.3319 15.69919759 23893,6737.264,91.724,361.453,356.804,0.0
55787.0,STARLINK-5811,PAYLOAD,2023-07-30 18:48:57,15.69936522,0.0003294,69.9974,96.1997,256.6067,103.4762,-1.5035e-05,-2.021e-05,0.0,0 STARLINK-5811,1 55787U 23028AY  23211.78399662 -.00002021  00000-0 -15035-4 0  9991,2 55787  69.9974  96.1997 0003294 256.6067 103.4762 15.69936522 24051,6737.216,91.723,361.3,356.861,0.0
55787.0,STARLINK-5811,PAYLOAD,2023-07-31 02:27:44,15.69910908,0.0002904,69.9969,95.304,277.7949,82.2917,-1.3576e-05,-1.844e-05,0.0,0 STARLINK-5811,1 55787U 23028AY  23212.10259533 -.00001844  00000-0 -13576-4 0  9990,2 55787  69.9969  95.3040 0002904 277.7949  82.2917 15.69910908 24107,6737.289,91.725,361.11,357.197,0.0
55787.0,STARLINK-5811,PAYLOAD,2023-07-31 17:45:14,15.69921631,0.0003425,69.9968,93.5118,261.4777,98.603,1.1896e-05,1.218e-05,0.0,0 STARLINK-5811,1 55787U 23028AY  23212.73974924  .00001218  00000-0  11896-4 0  9993,2 55787  69.9968  93.5118 0003425 261.4777  98.6030 15.69921631 24203,6737.258,91.724,361.431,356.816,0.0
55787.0,STARLINK-5811,PAYLOAD,2023-08-01 18:13:16,15.69924941,0.000345,69.9968,90.6454,265.1139,94.9663,1.013e-06,-9.1e-07,0.0,0 STARLINK-5811,1 55787U 23028AY  23213.75921900 -.00000091  00000-0  10130-5 0  9992,2 55787  69.9968  90.6454 0003450 265.1139  94.9663 15.69924941 24360,6737.249,91.724,361.438,356.789,0.0
55787.0,STARLINK-5811,PAYLOAD,2023-08-02 01:52:00,15.69947387,0.000411,69.9964,89.7533,264.9948,95.0779,1.5024e-05,1.596e-05,0.0,0 STARLINK-5811,1 55787U 23028AY  23214.07778360  .00001596  00000-0  15024-4 0  9994,2 55787  69.9964  89.7533 0004110 264.9948  95.0779 15.69947387 24417,6737.185,91.723,361.819,356.281,0.0
55787.0,STARLINK-5811,PAYLOAD,2023-08-02 09:30:47,15.69912861,0.0003278,69.9975,88.8554,269.6533,90.4287,2.277e-05,2.525e-05,0.0,0 STARLINK-5811,1 55787U 23028AY  23214.39638851  .00002525  00000-0  22770-4 0  9998,2 55787  69.9975  88.8554 0003278 269.6533  90.4287 15.69912861 24465,6737.283,91.725,361.357,356.94,0.0
55787.0,STARLINK-5811,PAYLOAD,2023-08-02 18:41:18,15.69924702,0.000322,69.9972,87.7794,268.1142,91.9685,1.7956e-06,3e-08,0.0,0 STARLINK-5811,1 55787U 23028AY  23214.77868579  .00000003  00000-0  17956-5 0  9992,2 55787  69.9972  87.7794 0003220 268.1142  91.9685 15.69924702 24525,6737.249,91.724,361.284,356.945,0.0
55787.0,STARLINK-5811,PAYLOAD,2023-08-03 19:09:20,15.69919925,0.0002944,69.9977,84.9119,267.0277,93.0582,2.9259e-07,-1.77e-06,0.0,0 STARLINK-5811,1 55787U 23028AY  23215.79815937 -.00000177  00000-0  29259-6 0  9998,2 55787  69.9977  84.9119 0002944 267.0277  93.0582 15.69919925 24686,6737.263,91.724,361.112,357.145,0.0
55787.0,STARLINK-5811,PAYLOAD,2023-08-04 01:16:20,15.69930405,0.0003368,69.9973,84.1965,275.3602,84.7209,1.3345e-05,1.392e-05,0.0,0 STARLINK-5811,1 55787U 23028AY  23216.05301754  .00001392  00000-0  13345-4 0  9991,2 55787  69.9973  84.1965 0003368 275.3602  84.7209 15.69930405 24722,6737.233,91.724,361.367,356.829,0.0
55787.0,STARLINK-5811,PAYLOAD,2023-08-04 18:05:37,15.69924988,0.0002958,69.9975,82.2254,274.5847,85.5011,1.0724e-05,1.077e-05,0.0,0 STARLINK-5811,1 55787U 23028AY  23216.75390482  .00001077  00000-0  10724-4 0  9992,2 55787  69.9975  82.2254 0002958 274.5847  85.5011 15.69924988 24831,6737.249,91.724,361.106,357.121,0.0
55787.0,STARLINK-5811,PAYLOAD,2023-08-05 18:33:39,15.69929012,0.0003953,69.9965,79.3585,279.1905,80.8844,6.6833e-06,5.91e-06,0.0,0 STARLINK-5811,1 55787U 23028AY  23217.77336825  .00000591  00000-0  66833-5 0  9999,2 55787  69.9965  79.3585 0003953 279.1905  80.8844 15.69929012 24998,6737.237,91.724,361.765,356.439,0.0
55787.0,STARLINK-5811,PAYLOAD,2023-08-06 00:40:42,15.69893609,0.0003449,69.9974,78.6426,277.4062,82.6742,-3.6102e-05,-4.546e-05,0.0,0 STARLINK-5811,1 55787U 23028AY  23218.02826655 -.00004546  00000-0 -36102-4 0  9994,2 55787  69.9974  78.6426 0003449 277.4062  82.6742 15.69893609 25034,6737.338,91.726,361.527,356.88,0.0
55787.0,STARLINK-5811,PAYLOAD,2023-08-06 17:29:56,15.69929553,0.0002647,69.9969,76.6709,246.4559,113.6358,1.086e-05,1.094e-05,0.0,0 STARLINK-5811,1 55787U 23028AY  23218.72912325  .00001094  00000-0  10860-4 0  9997,2 55787  69.9969  76.6709 0002647 246.4559 113.6358 15.69929553 25144,6737.236,91.724,360.884,357.317,0.0
55787.0,STARLINK-5811,PAYLOAD,2023-08-08 00:04:58,15.69927474,0.0003773,69.9966,73.089,267.2913,92.7851,1.0631e-05,1.066e-05,0.0,0 STARLINK-5811,1 55787U 23028AY  23220.00345463  .00001066  00000-0  10631-4 0  9999,2 55787  69.9966  73.0890 0003773 267.2913  92.7851 15.69927474 25346,6737.241,91.724,361.648,356.565,0.0
55787.0,STARLINK-5811,PAYLOAD,2023-08-09 00:33:00,15.69928063,0.0003248,69.9989,70.225,268.9532,91.1291,-7.1649e-07,-2.99e-06,0.0,0 STARLINK-5811,1 55787U 23028AY  23221.02292759 -.00000299  00000-0 -71649-6 0  9998,2 55787  69.9989  70.2250 0003248 268.9532  91.1291 15.69928063 25506,6737.24,91.724,361.293,356.917,0.0
55787.0,STARLINK-5811,PAYLOAD,2023-08-10 07:08:03,15.69915306,0.0003234,69.9975,66.6394,270.2728,89.8097,1.0765e-05,1.081e-05,0.0,0 STARLINK-5811,1 55787U 23028AY  23222.29726607  .00001081  00000-0  10765-4 0  9990,2 55787  69.9975  66.6394 0003234 270.2728  89.8097 15.69915306 25703,6737.276,91.725,361.32,356.962,0.0
55787.0,STARLINK-5811,PAYLOAD,2023-08-10 14:46:48,15.6992268,0.0003834,69.9975,65.7435,268.9269,91.1488,7.5605e-06,6.96e-06,0.0,0 STARLINK-5811,1 55787U 23028AY  23222.61584425  .00000696  00000-0  75605-5 0  9992,2 55787  69.9975  65.7435 0003834 268.9269  91.1488 15.69922680 25757,6737.255,91.724,361.703,356.537,0.0
